FENGYUN 1C DEB          
1 31667U 99025CBZ 17345.51474694  .00000089  00000-0  61861-4 0  9991
2 31667  98.8992  90.0704 0054013 164.6940 195.5885 14.20355525144702
